start=new Date('2022-07-18T00:00:00.000Z').valueOf();
sats=[{"MEAN_ELEMENT_THEORY":"SGP4","EPOCH":"2022-07-17T21:01:51.697056","REF_FRAME":"TEME","EPHEMERIS_TYPE":"0","PERIAPSIS":"546.235","CLASSIFICATION_TYPE":"U","FILE":"3516387","TIME_SYSTEM":"UTC","RCS_SIZE":"LARGE","REV_AT_EPOCH":"13146","TLE_LINE2":"2 45191  53.0543 260.8812 0001414  72.4096 287.7047 15.06399888131464","PERIOD":"95.592","CENTER_NAME":"EARTH","INCLINATION":"53.0543","SITE":"AFETR","SEMIMAJOR_AXIS":"6925.349","ARG_OF_PERICENTER":"72.4096","MEAN_MOTION_DOT":"-0.00000101","MEAN_MOTION_DDOT":"0.0000000000000","DECAY_DATE":null,"MEAN_ANOMALY":"287.7047","OBJECT_NAME":"STARLINK-1236","GP_ID":"208335498","BSTAR":"0.00001213000000","RA_OF_ASC_NODE":"260.8812","APOAPSIS":"548.193","NORAD_CAT_ID":"45191","OBJECT_ID":"2020-012P","LAUNCH_DATE":"2020-02-17","ECCENTRICITY":"0.00014140","COUNTRY_CODE":"US","OBJECT_TYPE":"PAYLOAD","TLE_LINE1":"1 45191U 20012P   22198.87629279 -.00000101  00000-0  12130-4 0  9991","MEAN_MOTION":"15.06399888","ELEMENT_SET_NO":"999"},{"MEAN_ANOMALY":"288.2773","OBJECT_NAME":"STARLINK-1237","MEAN_MOTION_DOT":"0.00000990","MEAN_MOTION_DDOT":"0.0000000000000","DECAY_DATE":null,"SEMIMAJOR_AXIS":"6925.384","ARG_OF_PERICENTER":"71.8364","PERIOD":"95.593","CENTER_NAME":"EARTH","INCLINATION":"53.0560","SITE":"AFETR","REV_AT_EPOCH":"13419","TLE_LINE2":"2 45192  53.0560 262.7675 0001361  71.8364 288.2773 15.06388418134196","FILE":"3516162","TIME_SYSTEM":"UTC","RCS_SIZE":"LARGE","CLASSIFICATION_TYPE":"U","PERIAPSIS":"546.307","EPOCH":"2022-07-17T10:51:29.571840","REF_FRAME":"TEME","EPHEMERIS_TYPE":"0","MEAN_ELEMENT_THEORY":"SGP4","ELEMENT_SET_NO":"999","TLE_LINE1":"1 45192U 20012Q   22198.45242560  .00000990  00000-0  85362-4 0  9992","MEAN_MOTION":"15.06388418","OBJECT_TYPE":"PAYLOAD","COUNTRY_CODE":"US","ECCENTRICITY":"0.00013610","OBJECT_ID":"2020-012Q","LAUNCH_DATE":"2020-02-17","NORAD_CAT_ID":"45192","APOAPSIS":"548.192","RA_OF_ASC_NODE":"262.7675","GP_ID":"208306853","BSTAR":"0.00008536200000"},{"TLE_LINE2":"2 45193  53.0498 260.7436 0001317  52.1222 307.9886 15.06402543134208","REV_AT_EPOCH":"13420","INCLINATION":"53.0498","SITE":"AFETR","PERIOD":"95.592","CENTER_NAME":"EARTH","RCS_SIZE":"LARGE","TIME_SYSTEM":"UTC","FILE":"3516387","REF_FRAME":"TEME","EPHEMERIS_TYPE":"0","EPOCH":"2022-07-17T21:44:19.296096","CLASSIFICATION_TYPE":"U","PERIAPSIS":"546.294","MEAN_ELEMENT_THEORY":"SGP4","DECAY_DATE":null,"MEAN_MOTION_DDOT":"0.0000000000000","MEAN_MOTION_DOT":"0.00000419","OBJECT_NAME":"STARLINK-1239","MEAN_ANOMALY":"307.9886","ARG_OF_PERICENTER":"52.1222","SEMIMAJOR_AXIS":"6925.341","LAUNCH_DATE":"2020-02-17","OBJECT_ID":"2020-012R","ECCENTRICITY":"0.00013170","APOAPSIS":"548.118","NORAD_CAT_ID":"45193","RA_OF_ASC_NODE":"260.7436","GP_ID":"208336489","BSTAR":"0.00004701400000","MEAN_MOTION":"15.06402543","TLE_LINE1":"1 45193U 20012R   22198.90577889  .00000419  00000-0  47014-4 0  9996","ELEMENT_SET_NO":"999","OBJECT_TYPE":"PAYLOAD","COUNTRY_CODE":"US"},{"COUNTRY_CODE":"US","OBJECT_TYPE":"PAYLOAD","ELEMENT_SET_NO":"999","TLE_LINE1":"1 45194U 20012S   22198.90945837  .00002972  00000-0  21837-3 0  9999","MEAN_MOTION":"15.06392843","BSTAR":"0.00021837000000","GP_ID":"208335747","RA_OF_ASC_NODE":"260.7348","NORAD_CAT_ID":"45194","APOAPSIS":"548.276","ECCENTRICITY":"0.00015020","OBJECT_ID":"2020-012S","LAUNCH_DATE":"2020-02-17","SEMIMAJOR_AXIS":"6925.370","ARG_OF_PERICENTER":"62.2352","MEAN_ANOMALY":"297.8789","OBJECT_NAME":"STARLINK-1240","MEAN_MOTION_DOT":"0.00002972","MEAN_MOTION_DDOT":"0.0000000000000","DECAY_DATE":null,"MEAN_ELEMENT_THEORY":"SGP4","CLASSIFICATION_TYPE":"U","PERIAPSIS":"546.195","EPOCH":"2022-07-17T21:49:37.203168","REF_FRAME":"TEME","EPHEMERIS_TYPE":"0","FILE":"3516387","RCS_SIZE":"LARGE","TIME_SYSTEM":"UTC","CENTER_NAME":"EARTH","PERIOD":"95.593","INCLINATION":"53.0515","SITE":"AFETR","REV_AT_EPOCH":"13415","TLE_LINE2":"2 45194  53.0515 260.7348 0001502  62.2352 297.8789 15.06392843134157"},{"ELEMENT_SET_NO":"999","MEAN_MOTION":"15.11088850","TLE_LINE1":"1 45195U 20012T   22198.61078346  .00015400  00000-0  92481-3 0  9993","COUNTRY_CODE":"US","OBJECT_TYPE":"PAYLOAD","NORAD_CAT_ID":"45195","APOAPSIS":"533.998","ECCENTRICITY":"0.00016180","LAUNCH_DATE":"2020-02-17","OBJECT_ID":"2020-012T","GP_ID":"208335997","BSTAR":"0.00092481000000","RA_OF_ASC_NODE":"259.6780","ARG_OF_PERICENTER":"90.5082","SEMIMAJOR_AXIS":"6911.015","OBJECT_NAME":"STARLINK-1241","MEAN_ANOMALY":"269.6094","DECAY_DATE":null,"MEAN_MOTION_DOT":"0.00015400","MEAN_MOTION_DDOT":"0.0000000000000","RCS_SIZE":"LARGE","TIME_SYSTEM":"UTC","FILE":"3516387","INCLINATION":"53.0501","SITE":"AFETR","CENTER_NAME":"EARTH","PERIOD":"95.296","TLE_LINE2":"2 45195  53.0501 259.6780 0001618  90.5082 269.6094 15.11088850134244","REV_AT_EPOCH":"13424","MEAN_ELEMENT_THEORY":"SGP4","CLASSIFICATION_TYPE":"U","PERIAPSIS":"531.762","REF_FRAME":"TEME","EPHEMERIS_TYPE":"0","EPOCH":"2022-07-17T14:39:31.690944"},{"RCS_SIZE":"LARGE","TIME_SYSTEM":"UTC","FILE":"3516387","SITE":"AFETR","INCLINATION":"53.0527","PERIOD":"95.592","CENTER_NAME":"EARTH","TLE_LINE2":"2 45196  53.0527 260.8143 0001295  82.8099 277.3037 15.06402119134305","REV_AT_EPOCH":"13430","MEAN_ELEMENT_THEORY":"SGP4","CLASSIFICATION_TYPE":"U","PERIAPSIS":"546.310","EPHEMERIS_TYPE":"0","REF_FRAME":"TEME","EPOCH":"2022-07-17T21:23:05.075808","ARG_OF_PERICENTER":"82.8099","SEMIMAJOR_AXIS":"6925.342","OBJECT_NAME":"STARLINK-1244","MEAN_ANOMALY":"277.3037","DECAY_DATE":null,"MEAN_MOTION_DDOT":"0.0000000000000","MEAN_MOTION_DOT":"-0.00000012","NORAD_CAT_ID":"45196","APOAPSIS":"548.104","ECCENTRICITY":"0.00012950","LAUNCH_DATE":"2020-02-17","OBJECT_ID":"2020-012U","BSTAR":"0.00001807000000","GP_ID":"208336747","RA_OF_ASC_NODE":"260.8143","ELEMENT_SET_NO":"999","MEAN_MOTION":"15.06402119","TLE_LINE1":"1 45196U 20012U   22198.89103097 -.00000012  00000-0  18070-4 0  9993","COUNTRY_CODE":"US","OBJECT_TYPE":"PAYLOAD"},{"OBJECT_TYPE":"PAYLOAD","COUNTRY_CODE":"US","MEAN_MOTION":"15.06400653","TLE_LINE1":"1 45197U 20012V   22198.87998069 -.00000978  00000-0 -46765-4 0  9997","ELEMENT_SET_NO":"999","RA_OF_ASC_NODE":"260.8653","BSTAR":"-0.00004676500000","GP_ID":"208336989","LAUNCH_DATE":"2020-02-17","OBJECT_ID":"2020-012V","ECCENTRICITY":"0.00017750","APOAPSIS":"548.441","NORAD_CAT_ID":"45197","DECAY_DATE":null,"MEAN_MOTION_DOT":"-0.00000978","MEAN_MOTION_DDOT":"0.0000000000000","OBJECT_NAME":"STARLINK-1269","MEAN_ANOMALY":"301.5954","ARG_OF_PERICENTER":"58.5208","SEMIMAJOR_AXIS":"6925.347","EPHEMERIS_TYPE":"0","REF_FRAME":"TEME","EPOCH":"2022-07-17T21:07:10.331616","PERIAPSIS":"545.982","CLASSIFICATION_TYPE":"U","MEAN_ELEMENT_THEORY":"SGP4","TLE_LINE2":"2 45197  53.0533 260.8653 0001775  58.5208 301.5954 15.06400653134224","REV_AT_EPOCH":"13422","SITE":"AFETR","INCLINATION":"53.0533","CENTER_NAME":"EARTH","PERIOD":"95.592","RCS_SIZE":"LARGE","TIME_SYSTEM":"UTC","FILE":"3516387"},{"EPHEMERIS_TYPE":"0","REF_FRAME":"TEME","EPOCH":"2022-07-17T12:56:11.590656","PERIAPSIS":"546.114","CLASSIFICATION_TYPE":"U","MEAN_ELEMENT_THEORY":"SGP4","TLE_LINE2":"2 45198  53.0536 242.3831 0001539  64.3600 295.7548 15.06411016134420","REV_AT_EPOCH":"13442","INCLINATION":"53.0536","SITE":"AFETR","CENTER_NAME":"EARTH","PERIOD":"95.591","TIME_SYSTEM":"UTC","RCS_SIZE":"LARGE","FILE":"3516387","DECAY_DATE":null,"MEAN_MOTION_DDOT":"0.0000000000000","MEAN_MOTION_DOT":"0.00002134","OBJECT_NAME":"STARLINK-1154","MEAN_ANOMALY":"295.7548","ARG_OF_PERICENTER":"64.3600","SEMIMAJOR_AXIS":"6925.315","RA_OF_ASC_NODE":"242.3831","BSTAR":"0.00016210000000","GP_ID":"208335249","LAUNCH_DATE":"2020-02-17","OBJECT_ID":"2020-012W","ECCENTRICITY":"0.00015390","APOAPSIS":"548.246","NORAD_CAT_ID":"45198","OBJECT_TYPE":"PAYLOAD","COUNTRY_CODE":"US","MEAN_MOTION":"15.06411016","TLE_LINE1":"1 45198U 20012W   22198.53902304  .00002134  00000-0  16210-3 0  9993","ELEMENT_SET_NO":"999"},{"OBJECT_NAME":"STARLINK-1197","MEAN_ANOMALY":"279.5603","DECAY_DATE":null,"MEAN_MOTION_DDOT":"0.0000000000000","MEAN_MOTION_DOT":"-0.00000722","ARG_OF_PERICENTER":"80.5544","SEMIMAJOR_AXIS":"6925.369","PERIAPSIS":"546.263","CLASSIFICATION_TYPE":"U","REF_FRAME":"TEME","EPHEMERIS_TYPE":"0","EPOCH":"2022-07-17T19:23:40.416288","MEAN_ELEMENT_THEORY":"SGP4","SITE":"AFETR","INCLINATION":"53.0552","PERIOD":"95.593","CENTER_NAME":"EARTH","TLE_LINE2":"2 45199  53.0552 241.1735 0001402  80.5544 279.5603 15.06393459134528","REV_AT_EPOCH":"13452","RCS_SIZE":"LARGE","TIME_SYSTEM":"UTC","FILE":"3516387","OBJECT_TYPE":"PAYLOAD","COUNTRY_CODE":"US","ELEMENT_SET_NO":"999","MEAN_MOTION":"15.06393459","TLE_LINE1":"1 45199U 20012X   22198.80810667 -.00000722  00000-0 -29572-4 0  9993","RA_OF_ASC_NODE":"241.1735","BSTAR":"-0.00002957200000","GP_ID":"208335499","ECCENTRICITY":"0.00014020","LAUNCH_DATE":"2020-02-17","OBJECT_ID":"2020-012X","NORAD_CAT_ID":"45199","APOAPSIS":"548.205"},{"SEMIMAJOR_AXIS":"6925.365","ARG_OF_PERICENTER":"74.1269","MEAN_ANOMALY":"285.9885","OBJECT_NAME":"STARLINK-1199","MEAN_MOTION_DDOT":"0.0000000000000","MEAN_MOTION_DOT":"-0.00000285","DECAY_DATE":null,"MEAN_ELEMENT_THEORY":"SGP4","PERIAPSIS":"546.187","CLASSIFICATION_TYPE":"U","EPOCH":"2022-07-17T19:34:16.968288","REF_FRAME":"TEME","EPHEMERIS_TYPE":"0","FILE":"3516387","TIME_SYSTEM":"UTC","RCS_SIZE":"LARGE","PERIOD":"95.592","CENTER_NAME":"EARTH","SITE":"AFETR","INCLINATION":"53.0530","REV_AT_EPOCH":"13452","TLE_LINE2":"2 45201  53.0530 241.1340 0001505  74.1269 285.9885 15.06394726134528","COUNTRY_CODE":"US","OBJECT_TYPE":"PAYLOAD","ELEMENT_SET_NO":"999","TLE_LINE1":"1 45201U 20012Z   22198.81547417 -.00000285  00000-0 -26072-6 0  9996","MEAN_MOTION":"15.06394726","BSTAR":"-0.00000026072000","GP_ID":"208336248","RA_OF_ASC_NODE":"241.1340","NORAD_CAT_ID":"45201","APOAPSIS":"548.272","ECCENTRICITY":"0.00015050","OBJECT_ID":"2020-012Z","LAUNCH_DATE":"2020-02-17"}];
